OBJECT_NAME,OBJECT_ID,EPOCH,MEAN_MOTION,ECCENTRICITY,INCLINATION,RA_OF_ASC_NODE,ARG_OF_PERICENTER,MEAN_ANOMALY,EPHEMERIS_TYPE,CLASSIFICATION_TYPE,NORAD_CAT_ID,ELEMENT_SET_NO,REV_AT_EPOCH,BSTAR,MEAN_MOTION_DOT,MEAN_MOTION_DDOT
TIANMU-1 15,2024-004A,2025-09-23T00:29:59.808768,15.23078444,.00059255,97.4669,87.8487,203.3744,156.7224,0,U,58700,999,9505,.5166628E-3,.12121E-3,0
TIANMU-1 16,2024-004B,2025-09-23T00:03:33.852096,15.23122373,.00061746,97.4605,87.2930,210.3249,149.7631,0,U,58701,999,9505,.54070839E-3,.12707E-3,0
TIANMU-1 17,2024-004C,2025-09-22T23:35:08.146752,15.23053105,.00051798,97.4641,87.6565,198.5725,161.5324,0,U,58702,999,9504,.54614812E-3,.12807E-3,0
TIANMU-1 18,2024-004D,2025-09-23T00:47:44.075328,15.23158120,.00048969,97.4660,87.8798,194.4744,165.6354,0,U,58703,999,9505,.51610286E-3,.12135E-3,0
INSAT-3DS,2024-033A,2025-09-22T19:49:20.474688,1.00269021,.00013744,0.0219,197.3740,348.9906,194.9709,0,U,58990,999,4438,0,0,0
METEOR-M2 4,2024-039A,2025-09-23T00:29:49.224768,14.22381579,.00062355,98.6610,224.2526,216.5259,143.5494,0,U,59051,999,8128,.56471281E-4,.82E-6,0
GOES 19,2024-119A,2025-09-22T09:32:38.785632,1.00270700,.00006858,0.0477,343.3152,282.7486,163.3997,0,U,60133,999,427,0,-.255E-5,0
