TIANMU-1 15             
1 58700U 24004A   25266.02083112  .00012121  00000+0  51666-3 0  9991
2 58700  97.4669  87.8487 0005925 203.3744 156.7224 15.23078444 95053
TIANMU-1 16             
1 58701U 24004B   25266.00247514  .00012707  00000+0  54071-3 0  9991
2 58701  97.4605  87.2930 0006174 210.3249 149.7631 15.23122373 95051
TIANMU-1 17             
1 58702U 24004C   25265.98273318  .00012807  00000+0  54615-3 0  9994
2 58702  97.4641  87.6565 0005179 198.5725 161.5324 15.23053105 95046
TIANMU-1 18             
1 58703U 24004D   25266.03314902  .00012135  00000+0  51610-3 0  9993
2 58703  97.4660  87.8798 0004896 194.4744 165.6354 15.23158120 95051
INSAT-3DS               
1 58990U 24033A   25265.82593142  .00000000  00000+0  00000+0 0  9995
2 58990   0.0219 197.3740 0001374 348.9906 194.9709  1.00269021 44389
METEOR-M2 4             
1 59051U 24039A   25266.02070862  .00000082  00000+0  56471-4 0  9990
2 59051  98.6610 224.2526 0006235 216.5259 143.5494 14.22381579 81282
GOES 19                 
1 60133U 24119A   25265.39767113 -.00000255  00000+0  00000+0 0  9998
2 60133   0.0477 343.3152 0000685 282.7486 163.3997  1.00270700  4278
